#aV2013  9  8  0  0  0.00000000     288 DD+AD WGS84 FIT  NGA
## 1757      0.00000000   300.00000000 56543 0.0000000000000
+   31     1  2  3  4  5  6  7  8  9 10 11 12 13 14 15 16 17
+         18 19 20 21 22 23 24 25 26 27 28 29 31 32  0  0  0
+          0  0  0  0  0  0  0  0  0  0  0  0  0  0  0  0  0
+          0  0  0  0  0  0  0  0  0  0  0  0  0  0  0  0  0
+          0  0  0  0  0  0  0  0  0  0  0  0  0  0  0  0  0
++         2  2  2  2  2  2  2  2  2  2  2  2  2  2  2  2  2
++         2  2  2  2  2  2  2  2  2  2  2  2  2  2  2  0  0
++         0  0  0  0  0  0  0  0  0  0  0  0  0  0  0  0  0
++         0  0  0  0  0  0  0  0  0  0  0  0  0  0  0  0  0
++         0  0  0  0  0  0  0  0  0  0  0  0  0  0  0  0  0
%c cc cc ccc ccc cccc cccc cccc cccc ccccc ccccc ccccc ccccc
%c cc cc ccc ccc cccc cccc cccc cccc ccccc ccccc ccccc ccccc
%f  0.0000000  0.000000000  0.00000000000  0.000000000000000
%f  0.0000000  0.000000000  0.00000000000  0.000000000000000
%i    0    0    0    0      0      0      0      0         0
%i    0    0    0    0      0      0      0      0         0
/*      NGA, ST. LOUIS,MO.                                  
/*   EPHEMERIS COMPUTED FROM  1 DAYS OF DATA
/*   EPOCHA SMOOTHER  
/* CCCCCCCCCCCCCCCCCCCCCCCCCCCCCCCCCCCCCCCCCCCCCCCCCCCCCCCCC
*  2013  9  8  0 30  0.00000000                                                 
P  1    746.169159  15618.915218 -21484.123692     72.283919                    
V  1 -25919.095526   8366.577933   5290.653243      0.042274                    
P  2  20783.892503 -14045.008828   8133.836670    450.274700                    
V  2  10816.717867   -165.417818 -29228.384134      0.017785                    
P  3  -8671.912751  22499.927841  10381.891589    256.519630                    
V  3  -2817.384493 -14224.018852  27278.784191      0.050377                    
P  4  25770.849912  -5793.251033  -4222.483292      0.255245                    
V  4  -3633.810416   4672.220434 -30473.720174      0.006186                    
P  5  10578.993494 -11305.461626  21555.545967   -399.670450                    
V  5  20822.744261  17930.078496   -665.382886     -0.000320                    
P  6 -13423.520583  16769.498612  15433.401911     42.560316                    
V  6   -130.601676 -19866.089472  21934.541432      0.191745                    
P  7  16706.008946   8223.282054  19119.371604    256.158559                    
V  7 -22546.886220   8313.430049  15858.715943      0.041808                    
P  8  24303.870295   2100.816202  11354.694527      8.305396                    
V  8 -13430.994195   3919.037262  27745.346677      0.002534                    
P  9  23949.717596   -528.504235  11069.991824    266.892819                    
V  9 -13369.454050   6610.220924  27785.907933      0.026976                    
P 10  21531.142081   4884.418588  14757.336697    -93.629399                    
V 10  12769.729327  14449.572839 -22525.475816     -0.014174                    
P 11  -4832.618112  20364.298769 -16680.567200   -417.679890                    
V 11 -18461.315050   9839.505648  18121.520196     -0.034959                    
P 12  -6028.588051 -20273.976303 -16241.054955    155.068736                    
V 12  15812.776910  12947.114681 -21896.093381      0.021782                    
P 13   7136.280138  18037.160623  17947.353221     82.179176                    
V 13  -7981.829830  21678.548366 -18615.825951     -0.037787                    
P 14 -15501.910357   1915.696549 -21242.065467    216.285209                    
V 14   6509.566063 -26697.943747  -7233.079955     -0.008574                    
P 15   2376.108994 -26194.917961  -2470.975807   -136.012197                    
V 15   4157.146639  -2511.629089  31230.090215     -0.018513                    
P 16 -10720.713358  10015.065499  22115.319301   -247.166204                    
V 16 -20300.868983 -19395.046799   -731.808716      0.007590                    
P 17  15226.736423    218.536060 -21518.120155    -19.144176                    
V 17  -5930.806489  27227.736580  -4111.875843     -0.037331                    
P 18 -20811.453603 -16721.891113  -1211.661827    272.923182                    
V 18    812.114275  -4049.680435  30717.834581      0.019967                    
P 19  -7806.941233  25128.195671    708.227867   -402.506458                    
V 19  -2698.811735  -1873.272129  32074.686662     -0.028054                    
P 20  11191.778170  20636.951430 -12669.219491    120.926416                    
V 20 -14389.961286  -7320.171558 -24906.454491      0.025575                    
P 21 -19793.411132  -6672.576290  17268.038561   -317.573966                    
V 21  18972.786856  -8507.269646  18606.934177     -0.019098                    
P 22 -22446.555027  -7397.570069 -12059.338404    183.722126                    
V 22  -9746.945447 -12665.025017  25337.500495      0.019508                    
P 23   2157.518964  24378.089009   9883.012688     50.231379                    
V 23  -5450.238209  11712.113392 -28350.522086     -0.034685                    
P 24   3759.873554 -16556.655310 -20420.860152    -13.330823                    
V 24  24767.904155  -7749.855051  10893.624865     -0.007814                    
P 25 -17232.642249 -19567.804304  -5387.495609    144.774017                    
V 25   6575.789264   2676.676048 -31004.107840      0.042681                    
P 26  12722.062897 -20830.456797   9426.154648    179.431893                    
V 26  -1276.126682  13147.815555  29149.231786      0.180519                    
P 27 -12447.500344  20051.113028  12161.632513    -33.829404                    
V 27    558.286303 -15634.852268  26334.602532     -0.046348                    
P 28  21488.739747  12039.623101  -9569.162579    290.724307                    
V 28   7946.951507  10362.557940  28944.163127      0.031669                    
P 29  -6344.977440 -20336.685612  15926.110223    468.811599                    
V 29   6497.265466 -19125.732257 -21848.161719      0.032009                    
P 31 -25772.487277   6621.385092  -2204.043696    325.344104                    
V 31   2245.563698  -2770.599124 -31833.553325      0.008556                    
P 32   1011.623278  19587.513722 -18031.774531   -550.260104                    
V 32 -17080.685466 -15430.870350 -17081.129873      0.024931                    
EOF
